STARLINK-2674_new
1 18354C 21038B   21326.16850887 -.00009313  00000-0 -62387-3 0  3266
2 18354  53.0533 202.9806 0002009  68.1474 350.9868 15.06415672    10
STARLINK-2674_old
1 28354C 21038B   21325.11631276  .00009237  00000-0  61881-3 0  3259
2 28354  53.0537 207.7039 0002006  66.2179  43.6473 15.06393003    14
